CCSDS_OMM_VERS = 2.0
CREATION_DATE  = 
ORIGINATOR     = 

OBJECT_NAME    = CZ-2C R/B
OBJECT_ID      = 2022-132E
CENTER_NAME    = EARTH
REF_FRAME      = TEME
TIME_SYSTEM    = UTC
MEAN_ELEMENT_THEORY = SGP/SGP4

EPOCH          = 2026-02-23T23:24:21.461760
MEAN_MOTION    = 15.60550543
ECCENTRICITY   = .00203685
INCLINATION    = 97.2977
RA_OF_ASC_NODE = 57.8911
ARG_OF_PERICENTER = 135.2809
MEAN_ANOMALY   = 225.0095

EPHEMERIS_TYPE = 0
CLASSIFICATION_TYPE = U
NORAD_CAT_ID   = 54039
ELEMENT_SET_NO = 999
REV_AT_EPOCH   = 18823
BSTAR          = .45463519E-3
MEAN_MOTION_DOT = .37875E-3
MEAN_MOTION_DDOT = 0

CCSDS_OMM_VERS = 2.0
CREATION_DATE  = 
ORIGINATOR     = 

OBJECT_NAME    = GSLV R/B
OBJECT_ID      = 2022-138AN
CENTER_NAME    = EARTH
REF_FRAME      = TEME
TIME_SYSTEM    = UTC
MEAN_ELEMENT_THEORY = SGP/SGP4

EPOCH          = 2026-02-24T06:46:32.346912
MEAN_MOTION    = 14.96663713
ECCENTRICITY   = .00210961
INCLINATION    = 87.3878
RA_OF_ASC_NODE = 170.8484
ARG_OF_PERICENTER = 194.3373
MEAN_ANOMALY   = 165.7263

EPHEMERIS_TYPE = 0
CLASSIFICATION_TYPE = U
NORAD_CAT_ID   = 54149
ELEMENT_SET_NO = 999
REV_AT_EPOCH   = 18192
BSTAR          = .28438732E-3
MEAN_MOTION_DOT = .3285E-4
MEAN_MOTION_DDOT = 0

CCSDS_OMM_VERS = 2.0
CREATION_DATE  = 
ORIGINATOR     = 

OBJECT_NAME    = XRISM
OBJECT_ID      = 2023-137A
CENTER_NAME    = EARTH
REF_FRAME      = TEME
TIME_SYSTEM    = UTC
MEAN_ELEMENT_THEORY = SGP/SGP4

EPOCH          = 2026-02-24T05:37:18.031008
MEAN_MOTION    = 15.11316074
ECCENTRICITY   = .00083406
INCLINATION    = 31.0036
RA_OF_ASC_NODE = 10.6795
ARG_OF_PERICENTER = 264.6054
MEAN_ANOMALY   = 95.3633

EPHEMERIS_TYPE = 0
CLASSIFICATION_TYPE = U
NORAD_CAT_ID   = 57800
ELEMENT_SET_NO = 999
REV_AT_EPOCH   = 13575
BSTAR          = .35281222E-3
MEAN_MOTION_DOT = .6194E-4
MEAN_MOTION_DDOT = 0

CCSDS_OMM_VERS = 2.0
CREATION_DATE  = 
ORIGINATOR     = 

OBJECT_NAME    = ACS3
OBJECT_ID      = 2024-077B
CENTER_NAME    = EARTH
REF_FRAME      = TEME
TIME_SYSTEM    = UTC
MEAN_ELEMENT_THEORY = SGP/SGP4

EPOCH          = 2026-02-24T05:54:16.384608
MEAN_MOTION    = 13.88986087
ECCENTRICITY   = .00512072
INCLINATION    = 97.2141
RA_OF_ASC_NODE = 359.3812
ARG_OF_PERICENTER = 114.6712
MEAN_ANOMALY   = 245.9796

EPHEMERIS_TYPE = 0
CLASSIFICATION_TYPE = U
NORAD_CAT_ID   = 59588
ELEMENT_SET_NO = 999
REV_AT_EPOCH   = 9233
BSTAR          = .17983611E-1
MEAN_MOTION_DOT = .22042E-3
MEAN_MOTION_DDOT = 0

CCSDS_OMM_VERS = 2.0
CREATION_DATE  = 
ORIGINATOR     = 

OBJECT_NAME    = SZ-21 MODULE
OBJECT_ID      = 2025-246C
CENTER_NAME    = EARTH
REF_FRAME      = TEME
TIME_SYSTEM    = UTC
MEAN_ELEMENT_THEORY = SGP/SGP4

EPOCH          = 2026-02-23T23:56:04.540992
MEAN_MOTION    = 15.67414814
ECCENTRICITY   = .00015025
INCLINATION    = 41.4750
RA_OF_ASC_NODE = 287.5769
ARG_OF_PERICENTER = 290.9828
MEAN_ANOMALY   = 69.0853

EPHEMERIS_TYPE = 0
CLASSIFICATION_TYPE = U
NORAD_CAT_ID   = 66515
ELEMENT_SET_NO = 999
REV_AT_EPOCH   = 1592
BSTAR          = .29145752E-3
MEAN_MOTION_DOT = .32253E-3
MEAN_MOTION_DDOT = 0

