CZ-2C R/B               
1 54039U 22132E   26054.97524840  .00037875  00000+0  45464-3 0  9992
2 54039  97.2977  57.8911 0020368 135.2809 225.0095 15.60550543188231
GSLV R/B                
1 54149U 22138AN  26055.28231883  .00003285  00000+0  28439-3 0  9998
2 54149  87.3878 170.8484 0021096 194.3373 165.7263 14.96663713181923
XRISM                   
1 57800U 23137A   26055.23423647  .00006194  00000+0  35281-3 0  9996
2 57800  31.0036  10.6795 0008340 264.6054  95.3633 15.11316074135754
ACS3                    
1 59588U 24077B   26055.24602297  .00022042  00000+0  17984-1 0  9994
2 59588  97.2141 359.3812 0051207 114.6712 245.9796 13.88986087 92336
SZ-21 MODULE            
1 66515U 25246C   26054.99727478  .00032253  00000+0  29146-3 0  9991
2 66515  41.4750 287.5769 0001502 290.9828  69.0853 15.67414814 15925
